<?xml version="1.0" encoding="UTF-8"?>
<ndm xmlns:xsi="http://www.w3.org/2001/XMLSchema-instance" xsi:noNamespaceSchemaLocation="https://sanaregistry.org/r/ndmxml_unqualified/ndmxml-2.0.0-master-2.0.xsd">
<omm id="CCSDS_OMM_VERS" version="2.0">
<header><CREATION_DATE/><ORIGINATOR/></header><body><segment><metadata><OBJECT_NAME>ORBCOMM FM33 [-]</OBJECT_NAME><OBJECT_ID>1999-065D</OBJECT_ID><CENTER_NAME>EARTH</CENTER_NAME><REF_FRAME>TEME</REF_FRAME><TIME_SYSTEM>UTC</TIME_SYSTEM><MEAN_ELEMENT_THEORY>SGP4</MEAN_ELEMENT_THEORY></metadata><data><meanElements><EPOCH>2023-08-29T10:41:56.391648</EPOCH><MEAN_MOTION>14.36666256</MEAN_MOTION><ECCENTRICITY>.0009545</ECCENTRICITY><INCLINATION>45.0286</INCLINATION><RA_OF_ASC_NODE>237.0374</RA_OF_ASC_NODE><ARG_OF_PERICENTER>344.7524</ARG_OF_PERICENTER><MEAN_ANOMALY>174.4607</MEAN_ANOMALY></meanElements><tleParameters><EPHEMERIS_TYPE>0</EPHEMERIS_TYPE><CLASSIFICATION_TYPE>U</CLASSIFICATION_TYPE><NORAD_CAT_ID>25983</NORAD_CAT_ID><ELEMENT_SET_NO>999</ELEMENT_SET_NO><REV_AT_EPOCH>24137</REV_AT_EPOCH><BSTAR>.36424E-3</BSTAR><MEAN_MOTION_DOT>.941E-5</MEAN_MOTION_DOT><MEAN_MOTION_DDOT>0</MEAN_MOTION_DDOT></tleParameters></data></segment></body></omm>
<omm id="CCSDS_OMM_VERS" version="2.0">
<header><CREATION_DATE/><ORIGINATOR/></header><body><segment><metadata><OBJECT_NAME>ORBCOMM FM36 [-]</OBJECT_NAME><OBJECT_ID>1999-065E</OBJECT_ID><CENTER_NAME>EARTH</CENTER_NAME><REF_FRAME>TEME</REF_FRAME><TIME_SYSTEM>UTC</TIME_SYSTEM><MEAN_ELEMENT_THEORY>SGP4</MEAN_ELEMENT_THEORY></metadata><data><meanElements><EPOCH>2023-08-29T11:51:12.843360</EPOCH><MEAN_MOTION>14.34556937</MEAN_MOTION><ECCENTRICITY>.0005389</ECCENTRICITY><INCLINATION>45.0412</INCLINATION><RA_OF_ASC_NODE>317.9215</RA_OF_ASC_NODE><ARG_OF_PERICENTER>238.8159</ARG_OF_PERICENTER><MEAN_ANOMALY>121.2161</MEAN_ANOMALY></meanElements><tleParameters><EPHEMERIS_TYPE>0</EPHEMERIS_TYPE><CLASSIFICATION_TYPE>U</CLASSIFICATION_TYPE><NORAD_CAT_ID>25984</NORAD_CAT_ID><ELEMENT_SET_NO>999</ELEMENT_SET_NO><REV_AT_EPOCH>23987</REV_AT_EPOCH><BSTAR>.37173E-3</BSTAR><MEAN_MOTION_DOT>.918E-5</MEAN_MOTION_DOT><MEAN_MOTION_DDOT>0</MEAN_MOTION_DDOT></tleParameters></data></segment></body></omm>
<omm id="CCSDS_OMM_VERS" version="2.0">
<header><CREATION_DATE/><ORIGINATOR/></header><body><segment><metadata><OBJECT_NAME>ORBCOMM FM35 [+]</OBJECT_NAME><OBJECT_ID>1999-065F</OBJECT_ID><CENTER_NAME>EARTH</CENTER_NAME><REF_FRAME>TEME</REF_FRAME><TIME_SYSTEM>UTC</TIME_SYSTEM><MEAN_ELEMENT_THEORY>SGP4</MEAN_ELEMENT_THEORY></metadata><data><meanElements><EPOCH>2023-08-29T11:24:02.299968</EPOCH><MEAN_MOTION>14.34272199</MEAN_MOTION><ECCENTRICITY>.000276</ECCENTRICITY><INCLINATION>45.0413</INCLINATION><RA_OF_ASC_NODE>319.9913</RA_OF_ASC_NODE><ARG_OF_PERICENTER>312.5706</ARG_OF_PERICENTER><MEAN_ANOMALY>47.4908</MEAN_ANOMALY></meanElements><tleParameters><EPHEMERIS_TYPE>0</EPHEMERIS_TYPE><CLASSIFICATION_TYPE>U</CLASSIFICATION_TYPE><NORAD_CAT_ID>25985</NORAD_CAT_ID><ELEMENT_SET_NO>999</ELEMENT_SET_NO><REV_AT_EPOCH>24027</REV_AT_EPOCH><BSTAR>.31093E-3</BSTAR><MEAN_MOTION_DOT>.739E-5</MEAN_MOTION_DOT><MEAN_MOTION_DDOT>0</MEAN_MOTION_DDOT></tleParameters></data></segment></body></omm>
<omm id="CCSDS_OMM_VERS" version="2.0">
<header><CREATION_DATE/><ORIGINATOR/></header><body><segment><metadata><OBJECT_NAME>ORBCOMM FM34 [-]</OBJECT_NAME><OBJECT_ID>1999-065G</OBJECT_ID><CENTER_NAME>EARTH</CENTER_NAME><REF_FRAME>TEME</REF_FRAME><TIME_SYSTEM>UTC</TIME_SYSTEM><MEAN_ELEMENT_THEORY>SGP4</MEAN_ELEMENT_THEORY></metadata><data><meanElements><EPOCH>2023-08-29T12:10:01.225632</EPOCH><MEAN_MOTION>14.34212671</MEAN_MOTION><ECCENTRICITY>.0004882</ECCENTRICITY><INCLINATION>45.0408</INCLINATION><RA_OF_ASC_NODE>320.2971</RA_OF_ASC_NODE><ARG_OF_PERICENTER>272.0030</ARG_OF_PERICENTER><MEAN_ANOMALY>88.0258</MEAN_ANOMALY></meanElements><tleParameters><EPHEMERIS_TYPE>0</EPHEMERIS_TYPE><CLASSIFICATION_TYPE>U</CLASSIFICATION_TYPE><NORAD_CAT_ID>25986</NORAD_CAT_ID><ELEMENT_SET_NO>999</ELEMENT_SET_NO><REV_AT_EPOCH>24039</REV_AT_EPOCH><BSTAR>.32946E-3</BSTAR><MEAN_MOTION_DOT>.791E-5</MEAN_MOTION_DOT><MEAN_MOTION_DDOT>0</MEAN_MOTION_DDOT></tleParameters></data></segment></body></omm>
<omm id="CCSDS_OMM_VERS" version="2.0">
<header><CREATION_DATE/><ORIGINATOR/></header><body><segment><metadata><OBJECT_NAME>ORBCOMM FM38 [-]</OBJECT_NAME><OBJECT_ID>2008-031A</OBJECT_ID><CENTER_NAME>EARTH</CENTER_NAME><REF_FRAME>TEME</REF_FRAME><TIME_SYSTEM>UTC</TIME_SYSTEM><MEAN_ELEMENT_THEORY>SGP4</MEAN_ELEMENT_THEORY></metadata><data><meanElements><EPOCH>2023-08-29T16:09:50.403456</EPOCH><MEAN_MOTION>14.75911261</MEAN_MOTION><ECCENTRICITY>.0005177</ECCENTRICITY><INCLINATION>48.4416</INCLINATION><RA_OF_ASC_NODE>194.3550</RA_OF_ASC_NODE><ARG_OF_PERICENTER>101.6557</ARG_OF_PERICENTER><MEAN_ANOMALY>258.4937</MEAN_ANOMALY></meanElements><tleParameters><EPHEMERIS_TYPE>0</EPHEMERIS_TYPE><CLASSIFICATION_TYPE>U</CLASSIFICATION_TYPE><NORAD_CAT_ID>33060</NORAD_CAT_ID><ELEMENT_SET_NO>999</ELEMENT_SET_NO><REV_AT_EPOCH>81746</REV_AT_EPOCH><BSTAR>.29282E-3</BSTAR><MEAN_MOTION_DOT>.1828E-4</MEAN_MOTION_DOT><MEAN_MOTION_DDOT>0</MEAN_MOTION_DDOT></tleParameters></data></segment></body></omm>
<omm id="CCSDS_OMM_VERS" version="2.0">
<header><CREATION_DATE/><ORIGINATOR/></header><body><segment><metadata><OBJECT_NAME>ORBCOMM FM41 [-]</OBJECT_NAME><OBJECT_ID>2008-031B</OBJECT_ID><CENTER_NAME>EARTH</CENTER_NAME><REF_FRAME>TEME</REF_FRAME><TIME_SYSTEM>UTC</TIME_SYSTEM><MEAN_ELEMENT_THEORY>SGP4</MEAN_ELEMENT_THEORY></metadata><data><meanElements><EPOCH>2023-08-29T10:24:35.319168</EPOCH><MEAN_MOTION>14.75683497</MEAN_MOTION><ECCENTRICITY>.0004369</ECCENTRICITY><INCLINATION>48.4451</INCLINATION><RA_OF_ASC_NODE>201.5478</RA_OF_ASC_NODE><ARG_OF_PERICENTER>84.9910</ARG_OF_PERICENTER><MEAN_ANOMALY>68.4344</MEAN_ANOMALY></meanElements><tleParameters><EPHEMERIS_TYPE>0</EPHEMERIS_TYPE><CLASSIFICATION_TYPE>U</CLASSIFICATION_TYPE><NORAD_CAT_ID>33061</NORAD_CAT_ID><ELEMENT_SET_NO>999</ELEMENT_SET_NO><REV_AT_EPOCH>81693</REV_AT_EPOCH><BSTAR>.28699E-3</BSTAR><MEAN_MOTION_DOT>.1777E-4</MEAN_MOTION_DOT><MEAN_MOTION_DDOT>0</MEAN_MOTION_DDOT></tleParameters></data></segment></body></omm>
<omm id="CCSDS_OMM_VERS" version="2.0">
<header><CREATION_DATE/><ORIGINATOR/></header><body><segment><metadata><OBJECT_NAME>ORBCOMM FM29 [-]</OBJECT_NAME><OBJECT_ID>2008-031C</OBJECT_ID><CENTER_NAME>EARTH</CENTER_NAME><REF_FRAME>TEME</REF_FRAME><TIME_SYSTEM>UTC</TIME_SYSTEM><MEAN_ELEMENT_THEORY>SGP4</MEAN_ELEMENT_THEORY></metadata><data><meanElements><EPOCH>2023-08-29T08:05:12.847200</EPOCH><MEAN_MOTION>14.75552204</MEAN_MOTION><ECCENTRICITY>.0006204</ECCENTRICITY><INCLINATION>48.4387</INCLINATION><RA_OF_ASC_NODE>209.9616</RA_OF_ASC_NODE><ARG_OF_PERICENTER>83.6852</ARG_OF_PERICENTER><MEAN_ANOMALY>69.4835</MEAN_ANOMALY></meanElements><tleParameters><EPHEMERIS_TYPE>0</EPHEMERIS_TYPE><CLASSIFICATION_TYPE>U</CLASSIFICATION_TYPE><NORAD_CAT_ID>33062</NORAD_CAT_ID><ELEMENT_SET_NO>999</ELEMENT_SET_NO><REV_AT_EPOCH>81683</REV_AT_EPOCH><BSTAR>.29127E-3</BSTAR><MEAN_MOTION_DOT>.1801E-4</MEAN_MOTION_DOT><MEAN_MOTION_DDOT>0</MEAN_MOTION_DDOT></tleParameters></data></segment></body></omm>
<omm id="CCSDS_OMM_VERS" version="2.0">
<header><CREATION_DATE/><ORIGINATOR/></header><body><segment><metadata><OBJECT_NAME>ORBCOMM FM39 [-]</OBJECT_NAME><OBJECT_ID>2008-031D</OBJECT_ID><CENTER_NAME>EARTH</CENTER_NAME><REF_FRAME>TEME</REF_FRAME><TIME_SYSTEM>UTC</TIME_SYSTEM><MEAN_ELEMENT_THEORY>SGP4</MEAN_ELEMENT_THEORY></metadata><data><meanElements><EPOCH>2023-08-29T09:20:30.375744</EPOCH><MEAN_MOTION>14.74736483</MEAN_MOTION><ECCENTRICITY>.0007262</ECCENTRICITY><INCLINATION>48.4412</INCLINATION><RA_OF_ASC_NODE>228.4979</RA_OF_ASC_NODE><ARG_OF_PERICENTER>59.9165</ARG_OF_PERICENTER><MEAN_ANOMALY>300.2467</MEAN_ANOMALY></meanElements><tleParameters><EPHEMERIS_TYPE>0</EPHEMERIS_TYPE><CLASSIFICATION_TYPE>U</CLASSIFICATION_TYPE><NORAD_CAT_ID>33063</NORAD_CAT_ID><ELEMENT_SET_NO>999</ELEMENT_SET_NO><REV_AT_EPOCH>81656</REV_AT_EPOCH><BSTAR>.26536E-3</BSTAR><MEAN_MOTION_DOT>.1589E-4</MEAN_MOTION_DOT><MEAN_MOTION_DDOT>0</MEAN_MOTION_DDOT></tleParameters></data></segment></body></omm>

</ndm>
