ORBCOMM FM33 [-]        
1 25983U 99065D   23241.44579157  .00000941  00000+0  36424-3 0  9995
2 25983  45.0286 237.0374 0009545 344.7524 174.4607 14.36666256241373
ORBCOMM FM36 [-]        
1 25984U 99065E   23241.49389865  .00000918  00000+0  37173-3 0  9992
2 25984  45.0412 317.9215 0005389 238.8159 121.2161 14.34556937239875
ORBCOMM FM35 [+]        
1 25985U 99065F   23241.47502662  .00000739  00000+0  31093-3 0  9999
2 25985  45.0413 319.9913 0002760 312.5706  47.4908 14.34272199240271
ORBCOMM FM34 [-]        
1 25986U 99065G   23241.50695863  .00000791  00000+0  32946-3 0  9996
2 25986  45.0408 320.2971 0004882 272.0030  88.0258 14.34212671240393
ORBCOMM FM38 [-]        
1 33060U 08031A   23241.67350004  .00001828  00000+0  29282-3 0  9995
2 33060  48.4416 194.3550 0005177 101.6557 258.4937 14.75911261817464
ORBCOMM FM41 [-]        
1 33061U 08031B   23241.43374212  .00001777  00000+0  28699-3 0  9991
2 33061  48.4451 201.5478 0004369  84.9910  68.4344 14.75683497816931
ORBCOMM FM29 [-]        
1 33062U 08031C   23241.33695425  .00001801  00000+0  29127-3 0  9998
2 33062  48.4387 209.9616 0006204  83.6852  69.4835 14.75552204816833
ORBCOMM FM39 [-]        
1 33063U 08031D   23241.38924046  .00001589  00000+0  26536-3 0  9992
2 33063  48.4412 228.4979 0007262  59.9165 300.2467 14.74736483816568
